[{"OBJECT_NAME":"OBJECT D","OBJECT_ID":"2024-092D","EPOCH":"2026-03-09T21:12:33.501312","MEAN_MOTION":15.33078357,"ECCENTRICITY":0.00083397,"INCLINATION":97.6418,"RA_OF_ASC_NODE":198.2302,"ARG_OF_PERICENTER":141.9853,"MEAN_ANOMALY":218.1979,"EPHEMERIS_TYPE":0,"CLASSIFICATION_TYPE":"U","NORAD_CAT_ID":59776,"ELEMENT_SET_NO":999,"REV_AT_EPOCH":10051,"BSTAR":0.00076511005,"MEAN_MOTION_DOT":0.00024443,"MEAN_MOTION_DDOT":0},{"OBJECT_NAME":"STARLINK-34759","OBJECT_ID":"2025-167U","EPOCH":"2026-03-09T06:16:19.705152","MEAN_MOTION":15.30188438,"ECCENTRICITY":0.00010963,"INCLINATION":53.1609,"RA_OF_ASC_NODE":28.6907,"ARG_OF_PERICENTER":80.5699,"MEAN_ANOMALY":279.5426,"EPHEMERIS_TYPE":0,"CLASSIFICATION_TYPE":"U","NORAD_CAT_ID":65096,"ELEMENT_SET_NO":999,"REV_AT_EPOCH":3341,"BSTAR":0.00093481697,"MEAN_MOTION_DOT":0.0002742,"MEAN_MOTION_DDOT":0}]
